{"type": "FeatureCollection", "features": [ {"type": "Feature", "properties": {"norad_id": 58662, "name": "TIANMU-1 21", "group": "weather", "lat": -51.177058120440925, "lon": -81.76936793686765, "alt_km": 473.50530991524556, "timestamp": "2025-12-20T03:42:47.035942+00:00", "meta": {"OBJECT_NAME": "TIANMU-1 21", "OBJECT_ID": "2023-208C", "EPOCH": "2025-12-19T20:25:57.546336", "MEAN_MOTION": 15.31694983, "ECCENTRICITY": 0.000617, "INCLINATION": 97.438, "RA_OF_ASC_NODE": 107.2698, "ARG_OF_PERICENTER": 230.2024, "MEAN_ANOMALY": 129.8675, "EPHEMERIS_TYPE": 0, "CLASSIFICATION_TYPE": "U", "NORAD_CAT_ID": 58662, "ELEMENT_SET_NO": 999, "REV_AT_EPOCH": 11008, "BSTAR": 0.00026081, "MEAN_MOTION_DOT": 7.908e-05, "MEAN_MOTION_DDOT": 0}, "tle": {"line1": "1 58662U 23208C   25353.85136049  .00007908  00000+0  26081-3 0  9999", "line2": "2 58662  97.4380 107.2698 0006170 230.2024 129.8675 15.31694983110087"}}, "geometry": {"type": "Point", "coordinates": [-81.76936793686765, -51.177058120440925]}}, {"type": "Feature", "properties": {"norad_id": 58663, "name": "TIANMU-1 22", "group": "weather", "lat": 47.71548587223417, "lon": 96.97311753594943, "alt_km": 480.20226464832194, "timestamp": "2025-12-20T03:42:47.035955+00:00", "meta": {"OBJECT_NAME": "TIANMU-1 22", "OBJECT_ID": "2023-208D", "EPOCH": "2025-12-19T21:12:52.458336", "MEAN_MOTION": 15.27717947, "ECCENTRICITY": 0.0002736, "INCLINATION": 97.4389, "RA_OF_ASC_NODE": 104.9633, "ARG_OF_PERICENTER": 249.2599, "MEAN_ANOMALY": 110.8347, "EPHEMERIS_TYPE": 0, "CLASSIFICATION_TYPE": "U", "NORAD_CAT_ID": 58663, "ELEMENT_SET_NO": 999, "REV_AT_EPOCH": 10992, "BSTAR": 0.0002313, "MEAN_MOTION_DOT": 6.19e-05, "MEAN_MOTION_DDOT": 0}, "tle": {"line1": "1 58663U 23208D   25353.88394049  .00006190  00000+0  23130-3 0  9993", "line2": "2 58663  97.4389 104.9633 0002736 249.2599 110.8347 15.27717947109929"}}, "geometry": {"type": "Point", "coordinates": [96.97311753594943, 47.71548587223417]}}, {"type": "Feature", "properties": {"norad_id": 58700, "name": "TIANMU-1 15", "group": "weather", "lat": 82.14689606786317, "lon": 67.45271566421386, "alt_km": 488.80850538657796, "timestamp": "2025-12-20T03:42:47.035965+00:00", "meta": {"OBJECT_NAME": "TIANMU-1 15", "OBJECT_ID": "2024-004A", "EPOCH": "2025-12-19T21:00:27.254880", "MEAN_MOTION": 15.24494862, "ECCENTRICITY": 0.0005943, "INCLINATION": 97.462, "RA_OF_ASC_NODE": 175.3179, "ARG_OF_PERICENTER": 259.9131, "MEAN_ANOMALY": 100.1436, "EPHEMERIS_TYPE": 0, "CLASSIFICATION_TYPE": "U", "NORAD_CAT_ID": 58700, "ELEMENT_SET_NO": 999, "REV_AT_EPOCH": 10843, "BSTAR": 0.00020118, "MEAN_MOTION_DOT": 4.874e-05, "MEAN_MOTION_DDOT": 0}, "tle": {"line1": "1 58700U 24004A   25353.87531545  .00004874  00000+0  20118-3 0  9993", "line2": "2 58700  97.4620 175.3179 0005943 259.9131 100.1436 15.24494862108430"}}, "geometry": {"type": "Point", "coordinates": [67.45271566421386, 82.14689606786317]}}, {"type": "Feature", "properties": {"norad_id": 58701, "name": "TIANMU-1 16", "group": "weather", "lat": 5.207555504275796, "lon": -4.337374879334849, "alt_km": 494.4984657317955, "timestamp": "2025-12-20T03:42:47.035975+00:00", "meta": {"OBJECT_NAME": "TIANMU-1 16", "OBJECT_ID": "2024-004B", "EPOCH": "2025-12-19T20:38:52.694304", "MEAN_MOTION": 15.24522105, "ECCENTRICITY": 0.0004312, "INCLINATION": 97.456, "RA_OF_ASC_NODE": 174.6858, "ARG_OF_PERICENTER": 263.6947, "MEAN_ANOMALY": 96.38, "EPHEMERIS_TYPE": 0, "CLASSIFICATION_TYPE": "U", "NORAD_CAT_ID": 58701, "ELEMENT_SET_NO": 999, "REV_AT_EPOCH": 10843, "BSTAR": 0.00020962, "MEAN_MOTION_DOT": 5.085e-05, "MEAN_MOTION_DDOT": 0}, "tle": {"line1": "1 58701U 24004B   25353.86033211  .00005085  00000+0  20962-3 0  9992", "line2": "2 58701  97.4560 174.6858 0004312 263.6947  96.3800 15.24522105108439"}}, "geometry": {"type": "Point", "coordinates": [-4.337374879334849, 5.207555504275796]}}, {"type": "Feature", "properties": {"norad_id": 58702, "name": "TIANMU-1 17", "group": "weather", "lat": -77.83081706777303, "lon": -42.02276569223835, "alt_km": 497.0344309592092, "timestamp": "2025-12-20T03:42:47.035985+00:00", "meta": {"OBJECT_NAME": "TIANMU-1 17", "OBJECT_ID": "2024-004C", "EPOCH": "2025-12-19T20:16:24.119040", "MEAN_MOTION": 15.24565702, "ECCENTRICITY": 0.0003503, "INCLINATION": 97.4594, "RA_OF_ASC_NODE": 175.084, "ARG_OF_PERICENTER": 266.0031, "MEAN_ANOMALY": 94.0806, "EPHEMERIS_TYPE": 0, "CLASSIFICATION_TYPE": "U", "NORAD_CAT_ID": 58702, "ELEMENT_SET_NO": 999, "REV_AT_EPOCH": 10842, "BSTAR": 0.00020278, "MEAN_MOTION_DOT": 4.923e-05, "MEAN_MOTION_DDOT": 0}, "tle": {"line1": "1 58702U 24004C   25353.84472360  .00004923  00000+0  20278-3 0  9993", "line2": "2 58702  97.4594 175.0840 0003503 266.0031  94.0806 15.24565702108425"}}, "geometry": {"type": "Point", "coordinates": [-42.02276569223835, -77.83081706777303]}}, {"type": "Feature", "properties": {"norad_id": 58703, "name": "TIANMU-1 18", "group": "weather", "lat": -8.529231594627761, "lon": 176.71562152370373, "alt_km": 496.20990015010557, "timestamp": "2025-12-20T03:42:47.035996+00:00", "meta": {"OBJECT_NAME": "TIANMU-1 18", "OBJECT_ID": "2024-004D", "EPOCH": "2025-12-19T19:52:28.187328", "MEAN_MOTION": 15.24550557, "ECCENTRICITY": 0.0002864, "INCLINATION": 97.4611, "RA_OF_ASC_NODE": 175.2642, "ARG_OF_PERICENTER": 264.13, "MEAN_ANOMALY": 95.9611, "EPHEMERIS_TYPE": 0, "CLASSIFICATION_TYPE": "U", "NORAD_CAT_ID": 58703, "ELEMENT_SET_NO": 999, "REV_AT_EPOCH": 10842, "BSTAR": 0.00018482, "MEAN_MOTION_DOT": 4.478e-05, "MEAN_MOTION_DDOT": 0}, "tle": {"line1": "1 58703U 24004D   25353.82810402  .00004478  00000+0  18482-3 0  9994", "line2": "2 58703  97.4611 175.2642 0002864 264.1300  95.9611 15.24550557108421"}}, "geometry": {"type": "Point", "coordinates": [176.71562152370373, -8.529231594627761]}}, {"type": "Feature", "properties": {"norad_id": 58990, "name": "INSAT-3DS", "group": "weather", "lat": 0.0168577779295931, "lon": -133.22707611803105, "alt_km": 35782.62911286339, "timestamp": "2025-12-20T03:42:47.036007+00:00", "meta": {"OBJECT_NAME": "INSAT-3DS", "OBJECT_ID": "2024-033A", "EPOCH": "2025-12-18T15:23:52.092960", "MEAN_MOTION": 1.00272396, "ECCENTRICITY": 0.00010988, "INCLINATION": 0.0507, "RA_OF_ASC_NODE": 110.1825, "ARG_OF_PERICENTER": 160.7703, "MEAN_ANOMALY": 129.6153, "EPHEMERIS_TYPE": 0, "CLASSIFICATION_TYPE": "U", "NORAD_CAT_ID": 58990, "ELEMENT_SET_NO": 999, "REV_AT_EPOCH": 4525, "BSTAR": 0, "MEAN_MOTION_DOT": -1.31e-06, "MEAN_MOTION_DDOT": 0}, "tle": {"line1": "1 58990U 24033A   25352.64157515 -.00000131  00000+0  00000+0 0  9998", "line2": "2 58990   0.0507 110.1825 0001098 160.7703 129.6153  1.00272396 45258"}}, "geometry": {"type": "Point", "coordinates": [-133.22707611803105, 0.0168577779295931]}}, {"type": "Feature", "properties": {"norad_id": 59051, "name": "METEOR-M2 4", "group": "weather", "lat": -34.5910900973447, "lon": -43.00691479579411, "alt_km": 818.7292981838173, "timestamp": "2025-12-20T03:42:47.036018+00:00", "meta": {"OBJECT_NAME": "METEOR-M2 4", "OBJECT_ID": "2024-039A", "EPOCH": "2025-12-19T19:26:09.953952", "MEAN_MOTION": 14.22402303, "ECCENTRICITY": 0.000666, "INCLINATION": 98.6776, "RA_OF_ASC_NODE": 310.6081, "ARG_OF_PERICENTER": 337.7929, "MEAN_ANOMALY": 22.2959, "EPHEMERIS_TYPE": 0, "CLASSIFICATION_TYPE": "U", "NORAD_CAT_ID": 59051, "ELEMENT_SET_NO": 999, "REV_AT_EPOCH": 9376, "BSTAR": 2.0538e-05, "MEAN_MOTION_DOT": 2e-08, "MEAN_MOTION_DDOT": 0}, "tle": {"line1": "1 59051U 24039A   25353.80983743  .00000002  00000+0  20538-4 0  9991", "line2": "2 59051  98.6776 310.6081 0006660 337.7929  22.2959 14.22402303 93767"}}, "geometry": {"type": "Point", "coordinates": [-43.00691479579411, -34.5910900973447]}}, {"type": "Feature", "properties": {"norad_id": 60133, "name": "GOES 19", "group": "weather", "lat": 0.005204313701754092, "lon": 69.5040013575364, "alt_km": 35788.00118796036, "timestamp": "2025-12-20T03:42:47.036029+00:00", "meta": {"OBJECT_NAME": "GOES 19", "OBJECT_ID": "2024-119A", "EPOCH": "2025-12-19T10:38:46.804128", "MEAN_MOTION": 1.00271901, "ECCENTRICITY": 0.0001077, "INCLINATION": 0.0077, "RA_OF_ASC_NODE": 262.8367, "ARG_OF_PERICENTER": 52.3942, "MEAN_ANOMALY": 217.5699, "EPHEMERIS_TYPE": 0, "CLASSIFICATION_TYPE": "U", "NORAD_CAT_ID": 60133, "ELEMENT_SET_NO": 999, "REV_AT_EPOCH": 516, "BSTAR": 0, "MEAN_MOTION_DOT": -2.24e-06, "MEAN_MOTION_DDOT": 0}, "tle": {"line1": "1 60133U 24119A   25353.44359727 -.00000224  00000+0  00000+0 0  9996", "line2": "2 60133   0.0077 262.8367 0001077  52.3942 217.5699  1.00271901  5165"}}, "geometry": {"type": "Point", "coordinates": [69.5040013575364, 0.005204313701754092]}}, {"type": "Feature", "properties": {"norad_id": 65815, "name": "FENGYUN 3H", "group": "weather", "lat": 41.90150100443356, "lon": 121.44368508739113, "alt_km": 821.7937807709341, "timestamp": "2025-12-20T03:42:47.036041+00:00", "meta": {"OBJECT_NAME": "FENGYUN 3H", "OBJECT_ID": "2025-219A", "EPOCH": "2025-12-19T20:18:11.788128", "MEAN_MOTION": 14.19906458, "ECCENTRICITY": 7.23e-05, "INCLINATION": 98.6594, "RA_OF_ASC_NODE": 293.2823, "ARG_OF_PERICENTER": 104.6992, "MEAN_ANOMALY": 255.4265, "EPHEMERIS_TYPE": 0, "CLASSIFICATION_TYPE": "U", "NORAD_CAT_ID": 65815, "ELEMENT_SET_NO": 999, "REV_AT_EPOCH": 1193, "BSTAR": 3.9271e-05, "MEAN_MOTION_DOT": 4e-07, "MEAN_MOTION_DDOT": 0}, "tle": {"line1": "1 65815U 25219A   25353.84596977  .00000040  00000+0  39271-4 0  9996", "line2": "2 65815  98.6594 293.2823 0000723 104.6992 255.4265 14.19906458 11930"}}, "geometry": {"type": "Point", "coordinates": [121.44368508739113, 41.90150100443356]}}]}